STARLINK-37224          
1 68671U 26077K   26196.56093191  .00009628  00000+0  30010-3 0  9999
2 68671  97.2853  67.3908 0002235 115.8608 244.2865 15.33450094 14750
STARLINK-37296          
1 68672U 26077L   26196.55821073  .00009462  00000+0  29505-3 0  9990
2 68672  97.2844  67.3916 0002252 112.1115 248.0367 15.33443441 14759
STARLINK-37316          
1 68673U 26077M   26196.55549654  .00007703  00000+0  24066-3 0  9996
2 68673  97.2848  67.3983 0001851  87.9956 272.1499 15.33446109 14752
STARLINK-36672          
1 68674U 26077N   26196.55276221  .00026587  00000+0  82151-3 0  9994
2 68674  97.2851  67.3998 0001568 111.5853 248.5557 15.33501094 14755
STARLINK-36669          
1 68675U 26077P   26196.55006745  .00014213  00000+0  44140-3 0  9996
2 68675  97.2851  67.4071 0001892 110.4918 249.6528 15.33469741 14751
STARLINK-37312          
1 68676U 26077Q   26196.53646052  .00009641  00000+0  30051-3 0  9991
2 68676  97.2849  67.4243 0001840  92.1150 268.0303 15.33449716 14753
STARLINK-36168          
1 68677U 26077R   26196.54464297  .00026663  00000+0  82550-3 0  9996
2 68677  97.2848  67.4115 0001639  97.3680 262.7749 15.33437517 14753
STARLINK-37122          
1 68678U 26077S   26196.54189692  .00009615  00000+0  29967-3 0  9991
2 68678  97.2856  67.4164 0001666  94.6744 265.4689 15.33454642 14759
STARLINK-37310          
1 68679U 26077T   26196.53917984  .00009323  00000+0  29071-3 0  9996
2 68679  97.2854  67.4183 0001613  92.2003 267.9424 15.33449941 14753
STARLINK-37306          
1 68680U 26077U   26196.53102114  .00010700  00000+0  33320-3 0  9992
2 68680  97.2849  67.4308 0001863  94.9621 265.1835 15.33452224 14754
STARLINK-37307          
1 68681U 26077V   26196.53374425  .00013838  00000+0  43009-3 0  9999
2 68681  97.2847  67.4268 0002071  90.4337 269.7143 15.33450502 14754
STARLINK-37300          
1 68682U 26077W   26196.58540087  .00014593  00000+0  45274-3 0  9999
2 68682  97.2848  67.5101 0006409  50.9472 309.2341 15.33478533 14768
STARLINK-37304          
1 68683U 26077X   26196.52288819  .00011422  00000+0  35554-3 0  9994
2 68683  97.2852  67.4426 0002097  77.6111 282.5366 15.33446791 14758
STARLINK-37287          
1 68684U 26077Y   26196.52558611  .00009379  00000+0  29241-3 0  9999
2 68684  97.2853  67.4383 0002142  90.5405 269.6083 15.33451773 14751
STARLINK-36278          
1 68685U 26077Z   26196.56050795  .00006445  00000+0  20181-3 0  9999
2 68685  97.2841  70.4405 0001471  86.4070 273.7341 15.33443550 14953
STARLINK-37213          
1 68686U 26077AA  26196.52830401  .00008212  00000+0  25637-3 0  9991
2 68686  97.2849  67.4326 0001998  95.9124 264.2347 15.33451371 14758
HJS-8A                  
1 68687U 26078A   26196.88791309  .00000038  00000+0  55434-4 0  9992
2 68687  86.5000 272.7672 0001678 106.6317 253.5002 13.24412997 12771
CYGNUS NG-24            
1 68689U 26079A   26196.76640667  .00004078  00000+0  82095-4 0  9993
2 68689  51.6311 158.6576 0006718 300.0875  59.9447 15.49019038575363
JILIN GAOFEN OBJECT A   
1 68691U 26080A   26196.79686066  .00002392  00000+0  15440-3 0  9990
2 68691  97.6617 272.2751 0011209 333.2917  26.7733 15.09203524 13974
JILIN GAOFEN OBJECT B   
1 68692U 26080B   26196.84530200  .00002177  00000+0  14185-3 0  9991
2 68692  97.6589 272.3366 0015727 311.1757  48.8115 15.08903393 13982
JILIN GAOFEN OBJECT C   
1 68693U 26080C   26196.79571421  .00002173  00000+0  14166-3 0  9991
2 68693  97.6608 272.2598 0013841 316.4089  43.6044 15.08902045 13978
JILIN GAOFEN OBJECT D   
1 68694U 26080D   26196.97873128  .00002118  00000+0  13791-3 0  9993
2 68694  97.6652 272.5443 0016426 322.5134  37.4948 15.08962917 13980
JILIN GAOFEN OBJECT E   
1 68695U 26080E   26196.96044087  .00002763  00000+0  17892-3 0  9999
2 68695  97.6633 272.5462 0013814 332.9750  27.0758 15.08923500 13965
JILIN GAOFEN OBJECT F   
1 68696U 26080F   26196.95947006  .00003564  00000+0  22975-3 0  9990
2 68696  97.6605 272.5134 0012529 335.7755  24.2882 15.08908182 13965
JILIN GAOFEN OBJECT G   
1 68697U 26080G   26196.94555432  .00002605  00000+0  16897-3 0  9999
2 68697  97.6654 272.5841 0014640 332.4805  27.5647 15.08901456 13963
JILIN GAOFEN OBJECT H   
1 68698U 26080H   26196.87719656  .00002474  00000+0  16067-3 0  9995
2 68698  97.6673 272.4962 0013613 330.3688  29.6768 15.08926780 13956
STARLINK-37358          
1 68699U 26081A   26196.27946610  .00009096  00000+0  28012-3 0  9993
2 68699  53.1572 160.3020 0001390  94.7170 265.3991 15.34387343 14298
STARLINK-37334          
1 68700U 26081B   26196.92870642  .00006681  00000+0  20875-3 0  9995
2 68700  53.1575 157.2438 0001515  95.5393 264.5783 15.34391844 14399
STARLINK-36955          
1 68701U 26081C   26196.27523234  .00016699  00000+0  50393-3 0  9994
2 68701  53.1569 160.2750 0001304  94.4915 265.6236 15.34420488 14299
STARLINK-36275          
1 68702U 26081D   26196.33827251  .00013770  00000+0  41786-3 0  9991
2 68702  53.1566 159.9702 0000953  95.5490 264.5621 15.34404021 14301
