OBJECT_NAME,OBJECT_ID,EPOCH,MEAN_MOTION,ECCENTRICITY,INCLINATION,RA_OF_ASC_NODE,ARG_OF_PERICENTER,MEAN_ANOMALY,EPHEMERIS_TYPE,CLASSIFICATION_TYPE,NORAD_CAT_ID,ELEMENT_SET_NO,REV_AT_EPOCH,BSTAR,MEAN_MOTION_DOT,MEAN_MOTION_DDOT
STARLINK-37224,2026-077K,2026-07-15T13:27:44.517024,15.33450094,.0002235,97.2853,67.3908,115.8608,244.2865,0,U,68671,999,1475,.3001E-3,.9628E-4,0
STARLINK-37296,2026-077L,2026-07-15T13:23:49.407072,15.33443441,.00022522,97.2844,67.3916,112.1115,248.0367,0,U,68672,999,1475,.29505235E-3,.9462E-4,0
STARLINK-37316,2026-077M,2026-07-15T13:19:54.901056,15.33446109,.0001851,97.2848,67.3983,87.9956,272.1499,0,U,68673,999,1475,.24066327E-3,.7703E-4,0
STARLINK-36672,2026-077N,2026-07-15T13:15:58.654944,15.33501094,.00015683,97.2851,67.3998,111.5853,248.5557,0,U,68674,999,1475,.82151264E-3,.26587E-3,0
STARLINK-36669,2026-077P,2026-07-15T13:12:05.827680,15.33469741,.00018928,97.2851,67.4071,110.4918,249.6528,0,U,68675,999,1475,.44139764E-3,.14213E-3,0
STARLINK-37312,2026-077Q,2026-07-15T12:52:30.188928,15.33449716,.00018403,97.2849,67.4243,92.1150,268.0303,0,U,68676,999,1475,.3005136E-3,.9641E-4,0
STARLINK-36168,2026-077R,2026-07-15T13:04:17.152608,15.33437517,.00016393,97.2848,67.4115,97.3680,262.7749,0,U,68677,999,1475,.82549778E-3,.26663E-3,0
STARLINK-37122,2026-077S,2026-07-15T13:00:19.893888,15.33454642,.00016669,97.2856,67.4164,94.6744,265.4689,0,U,68678,999,1475,.29967071E-3,.9615E-4,0
STARLINK-37310,2026-077T,2026-07-15T12:56:25.138176,15.33449941,.00016132,97.2854,67.4183,92.2003,267.9424,0,U,68679,999,1475,.29070895E-3,.9323E-4,0
STARLINK-37306,2026-077U,2026-07-15T12:44:40.226496,15.33452224,.00018638,97.2849,67.4308,94.9621,265.1835,0,U,68680,999,1475,.33319582E-3,.107E-3,0
STARLINK-37307,2026-077V,2026-07-15T12:48:35.503200,15.33450502,.00020711,97.2847,67.4268,90.4337,269.7143,0,U,68681,999,1475,.43008844E-3,.13838E-3,0
STARLINK-37300,2026-077W,2026-07-15T14:02:58.635168,15.33478533,.0006409,97.2848,67.5101,50.9472,309.2341,0,U,68682,999,1476,.45274E-3,.14593E-3,0
STARLINK-37304,2026-077X,2026-07-15T12:32:57.539616,15.33446791,.0002097,97.2852,67.4426,77.6111,282.5366,0,U,68683,999,1475,.3555397E-3,.11422E-3,0
STARLINK-37287,2026-077Y,2026-07-15T12:36:50.639904,15.33451773,.0002142,97.2853,67.4383,90.5405,269.6083,0,U,68684,999,1475,.29240999E-3,.9379E-4,0
STARLINK-36278,2026-077Z,2026-07-15T13:27:07.886880,15.33443550,.0001471,97.2841,70.4405,86.4070,273.7341,0,U,68685,999,1495,.20181E-3,.6445E-4,0
STARLINK-37213,2026-077AA,2026-07-15T12:40:45.466464,15.33451371,.00019981,97.2849,67.4326,95.9124,264.2347,0,U,68686,999,1475,.25637102E-3,.8212E-4,0
HJS-8A,2026-078A,2026-07-15T21:18:35.690976,13.24412997,.00016789,86.5000,272.7672,106.6317,253.5002,0,U,68687,999,1277,.55433823E-4,.38E-6,0
CYGNUS NG-24,2026-079A,2026-07-15T18:23:37.536288,15.49019038,.00067189,51.6311,158.6576,300.0875,59.9447,0,U,68689,999,57536,.82095193E-4,.4078E-4,0
JILIN GAOFEN OBJECT A,2026-080A,2026-07-15T19:07:28.761024,15.09203524,.00112093,97.6617,272.2751,333.2917,26.7733,0,U,68691,999,1397,.15440087E-3,.2392E-4,0
JILIN GAOFEN OBJECT B,2026-080B,2026-07-15T20:17:14.092800,15.08903393,.00157279,97.6589,272.3366,311.1757,48.8115,0,U,68692,999,1398,.14184689E-3,.2177E-4,0
JILIN GAOFEN OBJECT C,2026-080C,2026-07-15T19:05:49.707744,15.08902045,.00138416,97.6608,272.2598,316.4089,43.6044,0,U,68693,999,1397,.14166497E-3,.2173E-4,0
JILIN GAOFEN OBJECT D,2026-080D,2026-07-15T23:29:22.382592,15.08962917,.00164266,97.6652,272.5443,322.5134,37.4948,0,U,68694,999,1398,.13791067E-3,.2118E-4,0
JILIN GAOFEN OBJECT E,2026-080E,2026-07-15T23:03:02.091168,15.08923500,.00138143,97.6633,272.5462,332.9750,27.0758,0,U,68695,999,1396,.17891541E-3,.2763E-4,0
JILIN GAOFEN OBJECT F,2026-080F,2026-07-15T23:01:38.213184,15.08908182,.0012529,97.6605,272.5134,335.7755,24.2882,0,U,68696,999,1396,.22975477E-3,.3564E-4,0
JILIN GAOFEN OBJECT G,2026-080G,2026-07-15T22:41:35.893248,15.08901456,.00146407,97.6654,272.5841,332.4805,27.5647,0,U,68697,999,1396,.16897209E-3,.2605E-4,0
JILIN GAOFEN OBJECT H,2026-080H,2026-07-15T21:03:09.782784,15.08926780,.00136134,97.6673,272.4962,330.3688,29.6768,0,U,68698,999,1395,.16066728E-3,.2474E-4,0
STARLINK-37358,2026-081A,2026-07-15T06:42:25.871040,15.34387343,.000139,53.1572,160.3020,94.7170,265.3991,0,U,68699,999,1429,.28011773E-3,.9096E-4,0
STARLINK-37334,2026-081B,2026-07-15T22:17:20.234688,15.34391844,.00015157,53.1575,157.2438,95.5393,264.5783,0,U,68700,999,1439,.20875189E-3,.6681E-4,0
STARLINK-36955,2026-081C,2026-07-15T06:36:20.074176,15.34420488,.00013042,53.1569,160.2750,94.4915,265.6236,0,U,68701,999,1429,.50392543E-3,.16699E-3,0
STARLINK-36275,2026-081D,2026-07-15T08:07:06.744864,15.34404021,.00009537,53.1566,159.9702,95.5490,264.5621,0,U,68702,999,1430,.41786372E-3,.1377E-3,0
